OBJECT_NAME,OBJECT_ID,EPOCH,MEAN_MOTION,ECCENTRICITY,INCLINATION,RA_OF_ASC_NODE,ARG_OF_PERICENTER,MEAN_ANOMALY,EPHEMERIS_TYPE,CLASSIFICATION_TYPE,NORAD_CAT_ID,ELEMENT_SET_NO,REV_AT_EPOCH,BSTAR,MEAN_MOTION_DOT,MEAN_MOTION_DDOT
UMBRA-10,2024-149CH,2026-07-18T11:59:06.854496,15.18907444,.00019062,97.6973,287.2914,159.5140,200.6171,0,U,60547,999,10548,.3830418E-3,.7926E-4,0
ICEYE-X33,2024-149CJ,2026-07-18T05:40:41.390688,15.00900394,.00018754,97.7373,278.2235,71.2698,288.8729,0,U,60548,999,10486,.20328003E-3,.2528E-4,0
ICEYE-X40,2024-149CK,2026-07-18T03:54:22.964256,14.98084258,.00036494,97.6805,275.1599,355.3306,4.7882,0,U,60549,999,10471,.13359194E-3,.1523E-4,0
SATELIOT_1,2024-149CL,2026-07-18T05:14:17.716704,14.98170195,.0005315,97.6734,274.5996,343.9851,16.1203,0,U,60550,999,10471,.1105168E-3,.1253E-4,0
BRO-14,2024-149CM,2026-07-18T03:49:29.523072,14.96241713,.00064884,97.6864,274.3801,9.4662,350.6680,0,U,60551,999,10462,.95345816E-4,.1019E-4,0
SATELIOT_3,2024-149CN,2026-07-18T04:39:36.845280,14.98166514,.00047638,97.6813,275.3977,351.9839,8.1306,0,U,60552,999,10472,.40741993E-4,.425E-5,0
BRO-15,2024-149CP,2026-07-18T03:24:36.322848,14.96223786,.0007417,97.6789,273.9359,354.8840,5.2304,0,U,60553,999,10463,.46478898E-4,.467E-5,0
UM5-RIBAT,2024-149CQ,2026-07-18T11:13:15.436128,15.01225819,.00004282,97.6600,276.8430,308.7094,51.4092,0,U,60554,999,10488,.86802581E-4,.1055E-4,0
UM5-EOSAT,2024-149CR,2026-07-18T03:46:24.440448,15.01739504,.00090156,97.6778,277.5478,27.8658,332.3048,0,U,60555,999,10486,.13485283E-3,.1696E-4,0
LASARSAT,2024-247Q,2026-07-17T23:09:42.630336,15.48162669,.00078224,44.9738,89.0178,183.9645,176.1185,0,U,62391,999,8808,.40982684E-3,.21749E-3,0
CROCUBE,2024-247T,2026-07-18T01:14:03.621984,15.50337911,.0007952,44.9717,85.3241,190.6183,169.4541,0,U,62394,999,8813,.43051364E-3,.2472E-3,0
TEVEL2-4,2025-052D,2026-07-18T15:57:43.674912,15.35641020,.00032682,97.3855,96.1261,45.1827,314.9681,0,U,63213,999,7494,.30055382E-3,.10338E-3,0
TEVEL2-5,2025-052E,2026-07-18T05:35:39.518592,15.35444756,.00033154,97.3855,95.6318,47.1094,313.0428,0,U,63214,999,7487,.28934081E-3,.9887E-4,0
TEVEL2-6,2025-052F,2026-07-18T05:54:26.563392,15.35408471,.00033769,97.3858,95.6297,49.4265,310.7272,0,U,63215,999,7487,.30399083E-3,.1038E-3,0
TEVEL2-1,2025-052H,2026-07-18T05:18:28.836576,15.34835684,.0004044,97.3830,95.1910,53.7107,306.4510,0,U,63217,999,7485,.28401311E-3,.9517E-4,0
TEVEL2-3,2025-052J,2026-07-18T06:42:54.396000,15.34900151,.00037787,97.3839,95.2758,55.7421,304.4179,0,U,63218,999,7486,.296017E-3,.9943E-4,0
TEVEL2-2,2025-052K,2026-07-18T06:52:30.830016,15.34848337,.00040779,97.3833,95.2592,53.6322,306.5297,0,U,63219,999,7486,.28756579E-3,.9641E-4,0
TEVEL2-9,2025-052AD,2026-07-18T12:01:02.696160,15.32793889,.00073819,97.3892,94.7793,47.4946,312.6919,0,U,63237,999,7482,.28074886E-3,.8821E-4,0
TEVEL2-7,2025-052AE,2026-07-18T05:18:49.751424,15.32471582,.00075221,97.3896,94.4025,48.3385,311.8500,0,U,63238,999,7477,.27537295E-3,.8564E-4,0
TEVEL2-8,2025-052AF,2026-07-18T05:31:08.579424,15.32456829,.00075556,97.3899,94.3878,49.4075,310.7823,0,U,63239,999,7477,.27307109E-3,.8487E-4,0
FORESAIL-1 PRIME,2025-276DS,2026-07-18T13:17:42.423936,15.18954100,.00026041,97.4187,272.2539,37.5376,322.6040,0,U,66778,999,3516,.11370332E-3,.2308E-4,0
